0 OPS 4682 DEB
1 26732U 65027BF  13282.38824200 -.00000001  00000-0 -30549-4 0  1689
2 26732 090.2845 251.3520 0046183 096.5228 056.2472 12.93757401895605
0 OPS 4682 DEB
1 26732U 65027BF  13284.91992176 -.00000118  00000-0 -45380-3 0  1696
2 26732 090.2848 251.4177 0046267 090.1165 327.3852 12.93758362895926
0 OPS 4682 DEB
1 26732U 65027BF  13287.71728279  .00000550  00000-0  19597-2 0  1708
2 26732 090.2857 251.4903 0046342 083.0592 035.9306 12.93753339896298
0 OPS 4682 DEB
1 26732U 65027BF  13290.18004753  .00000450  00000-0  16000-2 0  1713
2 26732 090.2863 251.5543 0046361 076.8565 346.0565 12.93756651896616
0 OPS 4682 DEB
1 26732U 65027BF  13292.36488188 -.00000007  00000-0 -51895-4 0  1727
2 26732 090.2865 251.6112 0046460 071.3574 081.7489 12.93763430896892
0 OPS 4682 DEB
1 26732U 65027BF  13294.89632315  .00000142  00000-0  48730-3 0  1732
2 26732 090.2868 251.6776 0046457 064.9895 351.8119 12.93765054897213
